NORAD_CAT_ID,OBJECT_NAME,OBJECT_TYPE,EPOCH,MEAN_MOTION,ECCENTRICITY,INCLINATION,RA_OF_ASC_NODE,ARG_OF_PERICENTER,MEAN_ANOMALY,BSTAR,MEAN_MOTION_DOT,MEAN_MOTION_DDOT,TLE_LINE0,TLE_LINE1,TLE_LINE2,SEMIMAJOR_AXIS,PERIOD,APOGEE,PERIGEE,DECAYED
53987.0,STARLINK-5112,PAYLOAD,2024-08-01 11:37:09,15.08843404,0.0001323,53.2179,321.4004,86.2074,273.9069,0.00013893,1.924e-05,0.0,0 STARLINK-5112,1 53987U 22125Z   24214.48413872  .00001924  00000-0  13893-3 0  9997,2 53987  53.2179 321.4004 0001323  86.2074 273.9069 15.08843404101118,6917.87,95.437,540.65,538.82,0.0
53987.0,STARLINK-5112,PAYLOAD,2024-08-02 00:20:13,15.08861026,0.0001581,53.2189,319.0219,80.1963,279.9208,0.00030565,4.583e-05,0.0,0 STARLINK-5112,1 53987U 22125Z   24215.01404087  .00004583  00000-0  30565-3 0  9994,2 53987  53.2189 319.0219 0001581  80.1963 279.9208 15.08861026101263,6917.816,95.436,540.775,538.587,0.0
53987.0,STARLINK-5112,PAYLOAD,2024-08-02 13:03:18,15.08857247,0.0001875,53.2176,316.6447,136.688,223.426,0.00025058,3.704e-05,0.0,0 STARLINK-5112,1 53987U 22125Z   24215.54395942  .00003704  00000-0  25058-3 0  9996,2 53987  53.2176 316.6447 0001875 136.6880 223.4260 15.08857247101279,6917.828,95.436,540.99,538.396,0.0
53987.0,STARLINK-5112,PAYLOAD,2024-08-03 00:11:00,15.0885191,0.0001509,53.2176,314.5629,95.6538,264.4626,-3.7188e-05,-8.8e-06,0.0,0 STARLINK-5112,1 53987U 22125Z   24216.00763980 -.00000880  00000-0 -37188-4 0  9991,2 53987  53.2176 314.5629 0001509  95.6538 264.4626 15.08851910101414,6917.844,95.437,540.753,538.665,0.0
53987.0,STARLINK-5112,PAYLOAD,2024-08-03 12:54:04,15.08852274,0.0001391,53.2172,312.1855,92.3885,267.7267,-0.00013941,-2.507e-05,0.0,0 STARLINK-5112,1 53987U 22125Z   24216.53755317 -.00002507  00000-0 -13941-3 0  9992,2 53987  53.2172 312.1855 0001391  92.3885 267.7267 15.08852274101425,6917.843,95.437,540.67,538.746,0.0
53987.0,STARLINK-5112,PAYLOAD,2024-08-03 16:04:52,15.08782149,0.0001287,53.2164,311.5921,87.6105,272.5034,-0.0017592,-0.00028132,0.0,0 STARLINK-5112,1 53987U 22125Z   24216.67004939 -.00028132  00000-0 -17592-2 0  9991,2 53987  53.2164 311.5921 0001287  87.6105 272.5034 15.08782149101518,6918.057,95.441,540.813,539.032,0.0
53987.0,STARLINK-5112,PAYLOAD,2024-08-04 12:44:55,15.08810967,0.0001624,53.2181,307.7225,112.9847,247.1316,0.00052364,8.049e-05,0.0,0 STARLINK-5112,1 53987U 22125Z   24217.53119419  .00008049  00000-0  52364-3 0  9997,2 53987  53.2181 307.7225 0001624 112.9847 247.1316 15.08810967101646,6917.969,95.439,540.958,538.711,0.0
53987.0,STARLINK-5112,PAYLOAD,2024-08-04 15:55:41,15.08816289,0.0001504,53.2178,307.1291,111.7046,248.4107,0.0016269,0.00025682,0.0,0 STARLINK-5112,1 53987U 22125Z   24217.66367997  .00025682  00000-0  16269-2 0  9992,2 53987  53.2178 307.1291 0001504 111.7046 248.4107 15.08816289101593,6917.953,95.439,540.858,538.777,0.0
53987.0,STARLINK-5112,PAYLOAD,2024-08-05 22:08:00,15.08864327,0.0001143,53.2168,301.4827,106.0107,254.1011,0.00084617,0.00013213,0.0,0 STARLINK-5112,1 53987U 22125Z   24218.92223115  .00013213  00000-0  84617-3 0  9995,2 53987  53.2168 301.4827 0001143 106.0107 254.1011 15.08864327101783,6917.806,95.436,540.462,538.88,0.0
53987.0,STARLINK-5112,PAYLOAD,2024-08-06 12:26:28,15.08863523,0.0001272,53.2177,298.8077,106.6293,253.4839,0.0004256,6.496e-05,0.0,0 STARLINK-5112,1 53987U 22125Z   24219.51838476  .00006496  00000-0  42560-3 0  9999,2 53987  53.2177 298.8077 0001272 106.6293 253.4839 15.08863523101949,6917.808,95.436,540.553,538.794,0.0
53987.0,STARLINK-5112,PAYLOAD,2024-08-06 15:37:14,15.08865717,0.0001262,53.2175,298.2129,106.6824,253.4306,0.00048258,7.406e-05,0.0,0 STARLINK-5112,1 53987U 22125Z   24219.65086261  .00007406  00000-0  48258-3 0  9993,2 53987  53.2175 298.2129 0001262 106.6824 253.4306 15.08865717101898,6917.802,95.436,540.54,538.794,0.0
53987.0,STARLINK-5112,PAYLOAD,2024-08-07 12:17:15,15.08840419,0.0001046,53.2161,294.341,99.1862,260.9249,-7.2097e-05,-1.435e-05,0.0,0 STARLINK-5112,1 53987U 22125Z   24220.51198520 -.00001435  00000-0 -72097-4 0  9999,2 53987  53.2161 294.3410 0001046  99.1862 260.9249 15.08840419102095,6917.879,95.438,540.468,539.02,0.0
53987.0,STARLINK-5112,PAYLOAD,2024-08-08 12:08:02,15.08844411,0.0001196,53.2164,289.8817,74.5276,285.5848,0.00019302,2.786e-05,0.0,0 STARLINK-5112,1 53987U 22125Z   24221.50558717  .00002786  00000-0  19302-3 0  9994,2 53987  53.2164 289.8817 0001196  74.5276 285.5848 15.08844411102173,6917.867,95.437,540.559,538.905,0.0
53987.0,STARLINK-5112,PAYLOAD,2024-08-08 21:40:21,15.0885646,0.0001189,53.2167,288.1004,85.7118,274.401,0.00037114,5.626e-05,0.0,0 STARLINK-5112,1 53987U 22125Z   24221.90302179  .00005626  00000-0  37114-3 0  9994,2 53987  53.2167 288.1004 0001189  85.7118 274.4010 15.08856460102239,6917.83,95.437,540.518,538.873,0.0
53987.0,STARLINK-5112,PAYLOAD,2024-08-09 11:58:49,15.08844933,0.0001083,53.2159,285.4231,98.4923,261.6192,0.0002376,3.496e-05,0.0,0 STARLINK-5112,1 53987U 22125Z   24222.49918541  .00003496  00000-0  23760-3 0  9990,2 53987  53.2159 285.4231 0001083  98.4923 261.6192 15.08844933102398,6917.865,95.437,540.48,538.981,0.0
53987.0,STARLINK-5112,PAYLOAD,2024-08-09 13:34:12,15.08846052,0.000108,53.2157,285.1249,96.5922,263.5193,0.0002623,3.89e-05,0.0,0 STARLINK-5112,1 53987U 22125Z   24222.56542440  .00003890  00000-0  26230-3 0  9992,2 53987  53.2157 285.1249 0001080  96.5922 263.5193 15.08846052102337,6917.862,95.437,540.474,538.98,0.0
53987.0,STARLINK-5112,PAYLOAD,2024-08-10 10:14:13,15.08841867,0.0001037,53.2155,281.259,96.5141,263.5969,0.00014516,2.023e-05,0.0,0 STARLINK-5112,1 53987U 22125Z   24223.42654606  .00002023  00000-0  14516-3 0  9997,2 53987  53.2155 281.2590 0001037  96.5141 263.5969 15.08841867102538,6917.875,95.437,540.457,539.022,0.0
53987.0,STARLINK-5112,PAYLOAD,2024-08-11 10:05:01,15.08833701,0.0001215,53.2176,276.799,94.0502,266.0629,3.6557e-05,2.94e-06,0.0,0 STARLINK-5112,1 53987U 22125Z   24224.42015366  .00000294  00000-0  36557-4 0  9990,2 53987  53.2176 276.7990 0001215  94.0502 266.0629 15.08833701102681,6917.9,95.438,540.605,538.924,0.0
53987.0,STARLINK-5112,PAYLOAD,2024-08-12 03:34:15,15.08844415,0.000147,53.2174,273.5278,102.3088,257.8069,0.00024893,3.676e-05,0.0,0 STARLINK-5112,1 53987U 22125Z   24225.14878966  .00003676  00000-0  24893-3 0  9999,2 53987  53.2174 273.5278 0001470 102.3088 257.8069 15.08844415102790,6917.867,95.437,540.749,538.715,0.0
53987.0,STARLINK-5112,PAYLOAD,2024-08-12 09:55:47,15.08846895,0.0001412,53.2172,272.3395,96.0916,264.0237,0.00023986,3.532e-05,0.0,0 STARLINK-5112,1 53987U 22125Z   24225.41374769  .00003532  00000-0  23986-3 0  9994,2 53987  53.2172 272.3395 0001412  96.0916 264.0237 15.08846895102768,6917.859,95.437,540.701,538.748,0.0
53987.0,STARLINK-5112,PAYLOAD,2024-08-13 09:46:35,15.08831187,9.26e-05,53.2159,267.8783,91.0325,269.0773,-1.7852e-05,-5.72e-06,0.0,0 STARLINK-5112,1 53987U 22125Z   24226.40735294 -.00000572  00000-0 -17852-4 0  9997,2 53987  53.2159 267.8783 0000926  91.0325 269.0773 15.08831187102983,6917.907,95.438,540.413,539.132,0.0
53987.0,STARLINK-5112,PAYLOAD,2024-08-13 19:18:53,15.08837673,0.0001249,53.2161,266.0951,94.3133,265.8001,5.9767e-06,-1.93e-06,0.0,0 STARLINK-5112,1 53987U 22125Z   24226.80479042 -.00000193  00000-0  59767-5 0  9997,2 53987  53.2161 266.0951 0001249  94.3133 265.8001 15.08837673102979,6917.888,95.438,540.617,538.888,0.0
53987.0,STARLINK-5112,PAYLOAD,2024-08-14 03:15:49,15.08841032,0.0001068,53.2147,264.6062,91.6631,268.4483,1.004e-06,-2.72e-06,0.0,0 STARLINK-5112,1 53987U 22125Z   24227.13598725 -.00000272  00000-0  10040-5 0  9993,2 53987  53.2147 264.6062 0001068  91.6631 268.4483 15.08841032103093,6917.877,95.437,540.481,539.003,0.0
53987.0,STARLINK-5112,PAYLOAD,2024-08-14 09:37:21,15.08847655,0.000115,53.2154,263.4181,94.4461,265.6662,0.00015573,2.192e-05,0.0,0 STARLINK-5112,1 53987U 22125Z   24227.40094462  .00002192  00000-0  15573-3 0  9998,2 53987  53.2154 263.4181 0001150  94.4461 265.6662 15.08847655103066,6917.857,95.437,540.518,538.926,0.0
53987.0,STARLINK-5112,PAYLOAD,2024-08-14 19:09:40,15.08845462,0.0001168,53.2156,261.6345,95.5355,264.5771,0.00012324,1.674e-05,0.0,0 STARLINK-5112,1 53987U 22125Z   24227.79838475  .00001674  00000-0  12324-3 0  9995,2 53987  53.2156 261.6345 0001168  95.5355 264.5771 15.08845462103123,6917.864,95.437,540.537,538.921,0.0
53987.0,STARLINK-5112,PAYLOAD,2024-08-15 09:28:09,15.08833813,0.0001252,53.216,258.9592,100.48,259.6333,2.7878e-05,1.56e-06,0.0,0 STARLINK-5112,1 53987U 22125Z   24228.39455169  .00000156  00000-0  27878-4 0  9992,2 53987  53.2160 258.9592 0001252 100.4800 259.6333 15.08833813103212,6917.899,95.438,540.63,538.898,0.0
53987.0,STARLINK-5112,PAYLOAD,2024-08-15 19:00:28,15.08837092,0.0001244,53.2159,257.1747,97.8264,262.2869,4.1551e-05,3.73e-06,0.0,0 STARLINK-5112,1 53987U 22125Z   24228.79199114  .00000373  00000-0  41551-4 0  9996,2 53987  53.2159 257.1747 0001244  97.8264 262.2869 15.08837092103348,6917.889,95.438,540.615,538.894,0.0
53987.0,STARLINK-5112,PAYLOAD,2024-08-16 09:18:56,15.08837458,0.000134,53.2166,254.4995,96.315,263.7995,1.5143e-05,-4.7e-07,0.0,0 STARLINK-5112,1 53987U 22125Z   24229.38815390 -.00000047  00000-0  15143-4 0  9990,2 53987  53.2166 254.4995 0001340  96.3150 263.7995 15.08837458103360,6917.888,95.438,540.68,538.826,0.0
53987.0,STARLINK-5112,PAYLOAD,2024-08-17 01:12:47,15.08840102,0.0001222,53.2163,251.5242,93.3171,266.7961,0.00017837,2.552e-05,0.0,0 STARLINK-5112,1 53987U 22125Z   24230.05055412  .00002552  00000-0  17837-3 0  9990,2 53987  53.2163 251.5242 0001222  93.3171 266.7961 15.08840102103534,6917.88,95.438,540.59,538.9,0.0
53987.0,STARLINK-5112,PAYLOAD,2024-08-17 07:34:20,15.0883938,0.0001203,53.2149,250.3341,90.7046,269.4084,0.00014286,1.986e-05,0.0,0 STARLINK-5112,1 53987U 22125Z   24230.31551524  .00001986  00000-0  14286-3 0  9999,2 53987  53.2149 250.3341 0001203  90.7046 269.4084 15.08839380103505,6917.882,95.438,540.58,538.915,0.0
